{
  "type": "FeatureCollection",
  "features": [
    {
      "type": "Feature",
      "geometry": {
        "type": "Polygon",
        "coordinates": [
          [
            [
              -87.393723,
              21.509176
            ],
            [
              -87.394786,
              21.51015
            ],
            [
              -87.393478,
              21.512876
            ],
            [
              -87.389748,
              21.517258
            ],
            [
              -87.383161,
              21.522803
            ],
            [
              -87.378698,
              21.525987
            ],
            [
              -87.376652,
              21.527243
            ],
            [
              -87.364023,
              21.53429
            ],
            [
              -87.373061,
              21.522175
            ],
            [
              -87.375225,
              21.519486
            ],
            [
              -87.375284,
              21.519429
            ],
            [
              -87.393723,
              21.509176
            ]
          ]
        ]
      },
      "properties": {
        "name": "Holbox"
      }
    }
  ]
}